0 FENGYUN 1C DEB
1 30664U 99025APW 13282.07584334  .00007848  00000-0  23517-2 0  8260
2 30664 099.0069 046.4386 0075141 007.4494 046.9046 14.41449012346878
0 FENGYUN 1C DEB
1 30664U 99025APW 13283.61801341  .00007227  00000-0  21664-2 0  8274
2 30664 099.0064 048.0636 0075044 002.8182 129.6887 14.41471086347097
0 FENGYUN 1C DEB
1 30664U 99025APW 13285.84314926  .00005690  00000-0  17086-2 0  8296
2 30664 099.0062 050.4087 0075006 356.1052 156.7898 14.41492865347418
0 FENGYUN 1C DEB
1 30664U 99025APW 13287.14699527  .00006069  00000-0  18207-2 0  8303
2 30664 099.0065 051.7831 0075043 352.1365 083.0874 14.41505365347603
0 FENGYUN 1C DEB
1 30664U 99025APW 13288.25544319  .00009523  00000-0  28460-2 0  8315
2 30664 099.0068 052.9514 0075035 348.8015 075.3834 14.41522856347763
0 FENGYUN 1C DEB
1 30664U 99025APW 13289.86398132  .00009249  00000-0  27633-2 0  8320
2 30664 099.0074 054.6470 0075006 343.9600 143.0290 14.41547190347996
0 FENGYUN 1C DEB
1 30664U 99025APW 13290.90466358  .00007681  00000-0  22971-2 0  8332
2 30664 099.0075 055.7440 0075066 340.7877 143.8483 14.41563342348140
0 FENGYUN 1C DEB
1 30664U 99025APW 13292.07128252  .00007149  00000-0  21385-2 0  8348
2 30664 099.0076 056.9735 0075079 337.2880 078.2536 14.41577643348318
0 FENGYUN 1C DEB
1 30664U 99025APW 13293.32002426  .00008524  00000-0  25453-2 0  8350
2 30664 099.0078 058.2903 0075142 333.4927 078.9730 14.41594927348499
0 FENGYUN 1C DEB
1 30664U 99025APW 13294.86184248  .00010090  00000-0  30081-2 0  8368
2 30664 099.0078 059.9158 0075122 328.8863 160.7281 14.41617115348715
0 FENGYUN 1C DEB
1 30664U 99025APW 13295.96566653  .00009809  00000-0  29237-2 0  8372
2 30664 099.0075 061.0795 0075174 325.5625 129.4758 14.41633455348873
